NORAD_CAT_ID,OBJECT_NAME,OBJECT_TYPE,EPOCH,MEAN_MOTION,ECCENTRICITY,INCLINATION,RA_OF_ASC_NODE,ARG_OF_PERICENTER,MEAN_ANOMALY,BSTAR,MEAN_MOTION_DOT,MEAN_MOTION_DDOT,TLE_LINE0,TLE_LINE1,TLE_LINE2,SEMIMAJOR_AXIS,PERIOD,APOGEE,PERIGEE,DECAYED
53864.0,STARLINK-4779,PAYLOAD,2024-05-01 14:54:17,15.08856266,0.0001597,53.2192,83.1664,82.1442,277.9731,-2.7135e-06,-3.31e-06,0.0,0 STARLINK-4779,1 53864U 22114AY  24122.62103640 -.00000331  00000-0 -27135-5 0  9991,2 53864  53.2192  83.1664 0001597  82.1442 277.9731 15.08856266 90362,6917.831,95.437,540.8,538.591,0.0
53864.0,STARLINK-4779,PAYLOAD,2024-05-02 03:37:22,15.08847535,0.0001281,53.217,80.7868,89.9003,270.2136,0.00015919,2.247e-05,0.0,0 STARLINK-4779,1 53864U 22114AY  24123.15095809  .00002247  00000-0  15919-3 0  9998,2 53864  53.2170  80.7868 0001281  89.9003 270.2136 15.08847535 90448,6917.857,95.437,540.609,538.836,0.0
53864.0,STARLINK-4779,PAYLOAD,2024-05-02 03:37:23,15.08836165,0.0001214,53.217,80.7867,89.6374,270.4758,0.00034015,5.129e-05,0.0,0 STARLINK-4779,1 53864U 22114AY  24123.15096385  .00005129  00000-0  34015-3 0  9998,2 53864  53.2170  80.7867 0001214  89.6374 270.4758 15.08836165 90440,6917.892,95.438,540.597,538.917,0.0
53864.0,STARLINK-4779,PAYLOAD,2024-05-02 14:45:05,15.08838713,0.0001178,53.2163,78.7044,92.1842,267.9285,0.00020625,2.996e-05,0.0,0 STARLINK-4779,1 53864U 22114AY  24123.61464213  .00002996  00000-0  20625-3 0  9999,2 53864  53.2163  78.7044 0001178  92.1842 267.9285 15.08838713 90519,6917.884,95.438,540.564,538.934,0.0
53864.0,STARLINK-4779,PAYLOAD,2024-05-03 06:38:55,15.08853158,0.0001202,53.2164,75.7311,85.5752,274.5378,0.00011411,1.529e-05,0.0,0 STARLINK-4779,1 53864U 22114AY  24124.27703170  .00001529  00000-0  11411-3 0  9994,2 53864  53.2164  75.7311 0001202  85.5752 274.5378 15.08853158 90616,6917.84,95.437,540.537,538.874,0.0
53864.0,STARLINK-4779,PAYLOAD,2024-05-03 20:57:25,15.08831314,0.0001303,53.2168,73.054,85.9458,274.1683,-7.1741e-05,-1.429e-05,0.0,0 STARLINK-4779,1 53864U 22114AY  24124.87321106 -.00001429  00000-0 -71741-4 0  9999,2 53864  53.2168  73.0540 0001303  85.9458 274.1683 15.08831314 90709,6917.907,95.438,540.673,538.871,0.0
53864.0,STARLINK-4779,PAYLOAD,2024-05-05 03:09:44,15.08840572,0.0001121,53.2178,67.4061,89.2282,270.8838,0.00015477,2.176e-05,0.0,0 STARLINK-4779,1 53864U 22114AY  24126.13176525  .00002176  00000-0  15477-3 0  9994,2 53864  53.2178  67.4061 0001121  89.2282 270.8838 15.08840572 90896,6917.879,95.438,540.519,538.968,0.0
53864.0,STARLINK-4779,PAYLOAD,2024-05-05 20:38:57,15.08858877,0.0001144,53.2183,64.1341,98.4119,261.7003,0.00038711,5.881e-05,0.0,0 STARLINK-4779,1 53864U 22114AY  24126.86038323  .00005881  00000-0  38711-3 0  9999,2 53864  53.2183  64.1341 0001144  98.4119 261.7003 15.08858877 91007,6917.823,95.436,540.479,538.896,0.0
53864.0,STARLINK-4779,PAYLOAD,2024-05-06 03:00:32,15.08827705,0.0001166,53.218,62.9457,86.6932,273.4194,0.00013506,1.862e-05,0.0,0 STARLINK-4779,1 53864U 22114AY  24127.12537193  .00001862  00000-0  13506-3 0  9998,2 53864  53.2180  62.9457 0001166  86.6932 273.4194 15.08827705 91045,6917.918,95.438,540.59,538.976,0.0
53864.0,STARLINK-4779,PAYLOAD,2024-05-06 12:32:50,15.0883775,0.0001251,53.2172,61.1607,90.1025,270.011,1.1709e-05,-1.02e-06,0.0,0 STARLINK-4779,1 53864U 22114AY  24127.52280228 -.00000102  00000-0  11709-4 0  9997,2 53864  53.2172  61.1607 0001251  90.1025 270.0110 15.08837750 91101,6917.887,95.438,540.618,538.887,0.0
53864.0,STARLINK-4779,PAYLOAD,2024-05-07 04:26:40,15.08854769,0.0001317,53.2175,58.1875,92.422,267.6923,0.00039249,5.967e-05,0.0,0 STARLINK-4779,1 53864U 22114AY  24128.18519254  .00005967  00000-0  39249-3 0  9995,2 53864  53.2175  58.1875 0001317  92.4220 267.6923 15.08854769 91206,6917.835,95.437,540.611,538.789,0.0
53864.0,STARLINK-4779,PAYLOAD,2024-05-07 12:23:37,15.08838584,0.0001773,53.218,56.7002,81.5418,278.5775,0.00011309,1.512e-05,0.0,0 STARLINK-4779,1 53864U 22114AY  24128.51640106  .00001512  00000-0  11309-3 0  9992,2 53864  53.2180  56.7002 0001773  81.5418 278.5775 15.08838584 91250,6917.885,95.438,540.976,538.523,0.0
53864.0,STARLINK-4779,PAYLOAD,2024-05-08 01:06:42,15.08825074,0.0001365,53.2171,54.3219,80.9609,279.1537,-5.92e-06,-3.82e-06,0.0,0 STARLINK-4779,1 53864U 22114AY  24129.04632931 -.00000382  00000-0 -59200-5 0  9998,2 53864  53.2171  54.3219 0001365  80.9609 279.1537 15.08825074 91338,6917.926,95.438,540.735,538.847,0.0
53864.0,STARLINK-4779,PAYLOAD,2024-05-08 12:14:25,15.08833514,0.0001396,53.2177,52.2417,82.5938,277.5213,0.00085351,0.00013319,0.0,0 STARLINK-4779,1 53864U 22114AY  24129.51001343  .00013319  00000-0  85351-3 0  9993,2 53864  53.2177  52.2417 0001396  82.5938 277.5213 15.08833514 91946,6917.9,95.438,540.731,538.799,0.0
53864.0,STARLINK-4779,PAYLOAD,2024-05-09 12:05:12,15.08855425,0.0001379,53.2177,47.781,93.784,266.331,0.00097588,0.00015284,0.0,0 STARLINK-4779,1 53864U 22114AY  24130.50361233  .00015284  00000-0  97588-3 0  9999,2 53864  53.2177  47.7810 0001379  93.7840 266.3310 15.08855425 92095,6917.833,95.437,540.652,538.744,0.0
53864.0,STARLINK-4779,PAYLOAD,2024-05-09 21:37:30,15.0885694,0.0001657,53.217,45.9986,97.6291,262.489,0.0013467,0.0002122,0.0,0 STARLINK-4779,1 53864U 22114AY  24130.90105217  .00021220  00000-0  13467-2 0  9991,2 53864  53.2170  45.9986 0001657  97.6291 262.4890 15.08856940 92154,6917.829,95.436,540.84,538.547,0.0
53864.0,STARLINK-4779,PAYLOAD,2024-05-10 03:59:03,15.08864687,0.0001538,53.2185,44.8058,107.9349,252.1811,0.0009935,0.0001557,0.0,0 STARLINK-4779,1 53864U 22114AY  24131.16600707  .00015570  00000-0  99350-3 0  9991,2 53864  53.2185  44.8058 0001538 107.9349 252.1811 15.08864687 91655,6917.805,95.436,540.734,538.606,0.0
53864.0,STARLINK-4779,PAYLOAD,2024-05-10 21:28:17,15.0886755,0.0001283,53.2187,41.5346,105.584,254.5293,0.0016912,0.0002675,0.0,0 STARLINK-4779,1 53864U 22114AY  24131.89464840  .00026750  00000-0  16912-2 0  9991,2 53864  53.2187  41.5346 0001283 105.5840 254.5293 15.08867550 91762,6917.796,95.436,540.549,538.774,0.0
53864.0,STARLINK-4779,PAYLOAD,2024-05-11 21:19:04,15.08697015,0.0001499,53.2189,37.0744,93.715,266.4013,0.0021811,0.00034459,0.0,0 STARLINK-4779,1 53864U 22114AY  24132.88824143  .00034459  00000-0  21811-2 0  9996,2 53864  53.2189  37.0744 0001499  93.7150 266.4013 15.08697015 91913,6918.317,95.447,541.22,539.145,0.0
53864.0,STARLINK-4779,PAYLOAD,2024-05-11 22:54:27,15.08724052,0.0001413,53.2191,36.7762,108.8164,251.2982,-0.001789,-0.00028557,0.0,0 STARLINK-4779,1 53864U 22114AY  24132.95448007 -.00028557  00000-0 -17890-2 0  9991,2 53864  53.2191  36.7762 0001413 108.8164 251.2982 15.08724052 92461,6918.235,95.445,541.077,539.122,0.0
53864.0,STARLINK-4779,PAYLOAD,2024-05-12 10:02:13,15.08712415,0.0001467,53.2187,34.6977,82.9668,277.1491,0.00037313,5.635e-05,0.0,0 STARLINK-4779,1 53864U 22114AY  24133.41820824  .00005635  00000-0  37313-3 0  9997,2 53864  53.2187  34.6977 0001467  82.9668 277.1491 15.08712415 91990,6918.27,95.446,541.15,539.12,0.0
53864.0,STARLINK-4779,PAYLOAD,2024-05-12 21:09:55,15.08795848,0.0001901,53.2187,32.6173,115.7725,244.3463,0.0015651,0.00024678,0.0,0 STARLINK-4779,1 53864U 22114AY  24133.88189647  .00024678  00000-0  15651-2 0  9997,2 53864  53.2187  32.6173 0001901 115.7725 244.3463 15.08795848 92063,6918.015,95.44,541.195,538.565,0.0
53864.0,STARLINK-4779,PAYLOAD,2024-05-12 22:45:18,15.08803605,0.00015,53.2183,32.3199,102.3297,257.7863,0.00068008,0.00010541,0.0,0 STARLINK-4779,1 53864U 22114AY  24133.94813446  .00010541  00000-0  68008-3 0  9994,2 53864  53.2183  32.3199 0001500 102.3297 257.7863 15.08803605 92619,6917.992,95.44,540.894,538.819,0.0
53864.0,STARLINK-4779,PAYLOAD,2024-05-13 09:53:00,15.08823551,0.0001562,53.2187,30.238,102.4213,257.6954,0.00079944,0.00012452,0.0,0 STARLINK-4779,1 53864U 22114AY  24134.41181679  .00012452  00000-0  79944-3 0  9997,2 53864  53.2187  30.2380 0001562 102.4213 257.6954 15.08823551 92688,6917.931,95.439,540.876,538.715,0.0
53864.0,STARLINK-4779,PAYLOAD,2024-05-13 16:14:34,15.08817047,0.000121,53.2178,29.0463,89.1835,270.9296,0.0013413,0.0002111,0.0,0 STARLINK-4779,1 53864U 22114AY  24134.67678372  .00021110  00000-0  13413-2 0  9995,2 53864  53.2178  29.0463 0001210  89.1835 270.9296 15.08817047 92722,6917.951,95.439,540.653,538.978,0.0
53864.0,STARLINK-4779,PAYLOAD,2024-05-14 01:46:51,15.088509,0.0001408,53.2175,27.2632,89.7409,270.3744,0.0013527,0.00021312,0.0,0 STARLINK-4779,1 53864U 22114AY  24135.07421154  .00021312  00000-0  13527-2 0  9994,2 53864  53.2175  27.2632 0001408  89.7409 270.3744 15.08850900 92243,6917.847,95.437,540.686,538.738,0.0
53864.0,STARLINK-4779,PAYLOAD,2024-05-14 09:43:47,15.08855824,0.0001597,53.2175,25.7773,88.8704,271.2471,0.00088951,0.00013903,0.0,0 STARLINK-4779,1 53864U 22114AY  24135.40540680  .00013903  00000-0  88951-3 0  9998,2 53864  53.2175  25.7773 0001597  88.8704 271.2471 15.08855824 92831,6917.832,95.437,540.802,538.592,0.0
53864.0,STARLINK-4779,PAYLOAD,2024-05-14 22:26:50,15.08879291,0.0001489,53.2169,23.3981,90.4695,269.6467,0.00048434,7.437e-05,0.0,0 STARLINK-4779,1 53864U 22114AY  24135.93530503  .00007437  00000-0  48434-3 0  9996,2 53864  53.2169  23.3981 0001489  90.4695 269.6467 15.08879291 92916,6917.76,95.435,540.655,538.595,0.0
53864.0,STARLINK-4779,PAYLOAD,2024-05-15 01:37:36,15.08887328,0.0001465,53.2172,22.8034,90.0199,270.0961,0.00057893,8.95e-05,0.0,0 STARLINK-4779,1 53864U 22114AY  24136.06777891  .00008950  00000-0  57893-3 0  9994,2 53864  53.2172  22.8034 0001465  90.0199 270.0961 15.08887328 92399,6917.736,95.435,540.614,538.587,0.0
53864.0,STARLINK-4779,PAYLOAD,2024-05-15 09:34:32,15.08861083,0.0002719,53.2161,21.3152,77.8159,282.3138,1.5481e-05,-4.2e-07,0.0,0 STARLINK-4779,1 53864U 22114AY  24136.39898803 -.00000042  00000-0  15481-4 0  9990,2 53864  53.2161  21.3152 0002719  77.8159 282.3138 15.08861083 92442,6917.816,95.436,541.562,537.8,0.0
